{
  "norad_id": 64254,
  "name": "STARLINK-34183",
  "history": [
    {
      "epoch": "2026-03-28T13:47:12.180192",
      "apogee_km": 484.009007336138,
      "perigee_km": 481.86286372190443,
      "latitude_deg": -34.28282764560526,
      "longitude_deg": -59.45313312020153,
      "semi_major_axis_km": 6861.0729355290205,
      "eccentricity": 0.0001564,
      "inclination_deg": 43.0016,
      "raan_deg": 200.7327,
      "arg_perigee_deg": 262.2372,
      "mean_anomaly_deg": 97.8302,
      "mean_motion_rev_day": 15.27617792
    }
  ]
}