{"fetched_at":"2026-03-29T16:36:15Z","count":15609,"tles":[{"name":"STARLINK-34183","line1":"1 64254U 25119X   26087.57444653  .00027014  00000+0  98647-3 0  9990","line2":"2 64254  43.0016 200.7327 0001564 262.2372  97.8302 15.27617792 47050","category":"Starlink"}]}